{"type":"FeatureCollection","features":[{"type":"Feature","id":161322,"geometry":{"type":"Polygon","coordinates":[[[111.409379667,-7.6774173910000059,0],[111.40935399300002,-7.6774691030000213,0],[111.40926077300003,-7.6776172990000191,0],[111.40900022199997,-7.6774599999999964,0],[111.40884674699998,-7.677767206999988,0],[111.40813263500002,-7.677468905000012,0],[111.40806784500001,-7.6774357130000226,0],[111.40796634600002,-7.677383715000019,0],[111.40789746399997,-7.6770574089999855,0],[111.407707109,-7.6768432580000194,0],[111.407266908,-7.6765577209999947,0],[111.40649358299999,-7.6761948540000162,0],[111.406208048,-7.6760461370000144,0],[111.40577974500002,-7.675843881999981,0],[111.40547636399998,-7.6757427549999875,0],[111.40538713299998,-7.6764446959999759,0],[111.40523246800001,-7.6769146400000068,0],[111.405494116,-7.6772771619999958,0],[111.405503635,-7.6775674560000198,0],[111.405503635,-7.677814920000003,0],[111.405503635,-7.67799100000002,0],[111.40549887499998,-7.6781670799999802,0],[111.40551315200003,-7.6784288229999902,0],[111.405494116,-7.6789951330000008,0],[111.405494116,-7.6792521140000076,0],[111.40556074199998,-7.6795471679999991,0],[111.40561784900001,-7.6797565599999871,0],[111.40570826599998,-7.6800183010000183,0],[111.40575585800002,-7.6801467920000164,0],[111.405774893,-7.6803942579999784,0],[111.40578441000002,-7.6805798539999728,0],[111.405812965,-7.6808368360000259,0],[111.405841517,-7.6809653259999777,0],[111.405879588,-7.6810414689999789,0],[111.40588910700001,-7.6811366480000061,0],[111.40590814299998,-7.6811889969999925,0],[111.40600332000002,-7.681231825999987,0],[111.40616512399998,-7.6813174870000012,0],[111.40634596299998,-7.681407906000004,0],[111.40656487199999,-7.6815268789999891,0],[111.40670764200001,-7.6815887449999991,0],[111.40682185600002,-7.6816506110000091,0],[111.40689799799998,-7.6817362740000021,0],[111.406945587,-7.6818790390000231,0],[111.40697413999999,-7.6819789770000284,0],[111.40700269400003,-7.6820646389999752,0],[111.40701459100001,-7.6821788519999927,0],[111.40703838600001,-7.6822978260000241,0],[111.40706218000003,-7.682393004000005,0],[111.40706694099998,-7.6825214940000137,0],[111.40706218000003,-7.6826119130000166,0],[111.40701459100001,-7.6827261299999918,0],[111.40696224300001,-7.6828213069999833,0],[111.40688134200002,-7.6829450380000139,0],[111.40679568199999,-7.683064010999999,0],[111.40669574499998,-7.6831829839999841,0],[111.40663387699999,-7.6833352699999864,0],[111.40661008299998,-7.6834161709999762,0],[111.406562495,-7.6835732160000134,0],[111.40653393999997,-7.6837350199999719,0],[111.40654345799999,-7.6840824199999815,0],[111.40664577500002,-7.6842537410000205,0],[111.406788543,-7.6843298840000216,0],[111.406927306,-7.6843966929999965,0],[111.40697890000001,-7.6844631339999978,0],[111.40701697200001,-7.6845773480000048,0],[111.40701221099999,-7.6846487330000173,0],[111.40694082900001,-7.6847248749999721,0],[111.40685992700003,-7.6847867430000179,0],[111.40680282,-7.6848961960000111,0],[111.40677426600001,-7.6849866150000139,0],[111.40675998799998,-7.6851008300000103,0],[111.40670764200001,-7.6852055260000043,0],[111.40669812300001,-7.6853054630000202,0],[111.40674571300002,-7.685421104999989,0],[111.40680282,-7.6855495959999871,0],[111.40687420299997,-7.6856971240000007,0],[111.40691703300001,-7.6858684439999934,0],[111.40693131,-7.6860016940000264,0],[111.406902758,-7.6861682559999736,0],[111.40685992700003,-7.6862729520000244,0],[111.40681233700002,-7.6863490950000255,0],[111.40673143599997,-7.6864585499999976,0],[111.40669812300001,-7.6866060770000217,0],[111.40669812300001,-7.6870105849999959,0],[111.40663149800002,-7.6872532919999799,0],[111.40650300700003,-7.6874246109999831,0],[111.40638879300002,-7.687491236000028,0],[111.40627933899998,-7.687534066000012,0],[111.40606994500001,-7.6875816560000203,0],[111.40586055300002,-7.687595932000022,0],[111.40564164199998,-7.6875626209999837,0],[111.40546556200002,-7.687481718000015,0],[111.405366136,-7.687375755000005,0],[111.40531406999997,-7.6873795999999857,0],[111.404312436,-7.6882590739999728,0],[111.404312436,-7.6882937589999756,0],[111.40432956799998,-7.6883013730000016,0],[111.404375254,-7.6883146979999992,0],[111.40442284300002,-7.6883261219999781,0],[111.40444378199999,-7.6883660959999816,0],[111.4044533,-7.6884174909999956,0],[111.40446662599999,-7.6884574680000242,0],[111.40447233600003,-7.6884955389999732,0],[111.40445901099997,-7.6885355129999766,0],[111.40441332500001,-7.6885602589999849,0],[111.40435431499998,-7.6885621619999824,0],[111.404314339,-7.6885888140000134,0],[111.404301014,-7.6886097519999907,0],[111.40426484599999,-7.6886135579999859,0],[111.40421725700003,-7.6886211730000014,0],[111.40419441500001,-7.6886364009999966,0],[111.404196318,-7.6886535329999788,0],[111.40420773900001,-7.6886877979999895,0],[111.40420583700001,-7.6887106410000001,0],[111.40422487199999,-7.688746808000019,0],[111.40424771300002,-7.6887658439999882,0],[111.40426674999998,-7.6887886869999988,0],[111.40428197900002,-7.6888324700000226,0],[111.40427626799999,-7.6888990940000213,0],[111.40426294299999,-7.6889314539999987,0],[111.40424771300002,-7.6889733329999785,0],[111.40424200500001,-7.6890152139999941,0],[111.40425152199998,-7.6890475719999927,0],[111.40427626799999,-7.6890875469999855,0],[111.40442855499998,-7.6891275219999784,0],[111.40460368200002,-7.6891694010000151,0],[111.40486066300002,-7.6891998579999949,0],[111.40505863499999,-7.6892360250000138,0],[111.40521310999998,-7.6900631490000251,0],[111.40538324200003,-7.6901189079999881,0],[111.40552601000002,-7.6901379440000142,0],[111.40567353699998,-7.6901855329999762,0],[111.40589244799997,-7.6902854699999921,0],[111.406082803,-7.690390165999986,0],[111.40628743799999,-7.6904377579999732,0],[111.406349304,-7.6905424519999883,0],[111.40644924100002,-7.6905805229999942,0],[111.40657773200002,-7.6906471489999717,0],[111.406734777,-7.6907518439999762,0],[111.40693941000001,-7.6907994339999846,0],[111.40712976700001,-7.6907994339999846,0],[111.407234464,-7.6907994339999846,0],[111.407324883,-7.6908850940000093,0],[111.40742006099998,-7.6909422009999844,0],[111.40757710600002,-7.6909612389999893,0],[111.40765324900002,-7.6909422009999844,0],[111.40776746300003,-7.6909993099999951,0],[111.40791498999999,-7.6910754520000069,0],[111.40809107000001,-7.6911515940000186,0],[111.408286186,-7.6911611119999748,0],[111.408390881,-7.6911991829999806,0],[111.40845274700001,-7.6913038789999746,0],[111.40854792599998,-7.6913419510000267,0],[111.40871448899998,-7.6913181560000226,0],[111.408809668,-7.6913514710000186,0],[111.40887153400001,-7.6913800219999757,0],[111.40900002299998,-7.6914942359999827,0],[111.40911423799997,-7.6915608620000171,0],[111.40918086400001,-7.6916703159999997,0],[111.40932541500001,-7.6916839990000199,0],[111.40944438700001,-7.6916364090000116,0],[111.40948008100003,-7.6914579499999718,0],[111.409494951,-7.6913449250000099,0],[111.40953956599998,-7.6912437980000163,0],[111.40954254100001,-7.6911367220000102,0],[111.40951577200002,-7.690979083000002,0],[111.40953361800001,-7.690895802,0],[111.40962879599999,-7.690851189,0],[111.40976858900001,-7.6908987759999832,0],[111.40983402500001,-7.6909999029999767,0],[111.409883052,-7.6911296819999961,0],[111.41005901599999,-7.6912530839999818,0],[111.41012551,-7.6911515940000186,0],[111.41029504400001,-7.6909076989999789,0],[111.41035750600003,-7.690812520999998,0],[111.41056273499998,-7.6905210379999858,0],[111.410918761,-7.6903006389999859,0],[111.41123998900002,-7.6899722740000129,0],[111.41150410900002,-7.6897795369999926,0],[111.41172539600001,-7.6894654480000213,0],[111.411831194,-7.6891052380000247,0],[111.41197005200002,-7.688657596999974,0],[111.412068041,-7.6881805389999727,0],[111.41199893100003,-7.6876849799999718,0],[111.41202208999999,-7.6871177830000192,0],[111.41203835099998,-7.6867195560000141,0],[111.41217160299999,-7.6855604959999937,0],[111.41220307499998,-7.6851038969999763,0],[111.412103903,-7.684530116000019,0],[111.41212574299999,-7.6840152930000158,0],[111.41197034999999,-7.6834591809999893,0],[111.41190731799998,-7.6831180679999989,0],[111.41188184800001,-7.6829802280000195,0],[111.41195065300002,-7.6824645600000281,0],[111.41204222800002,-7.6819768689999819,0],[111.41238748400002,-7.6815406530000132,0],[111.41262542999999,-7.6812313240000094,0],[111.41292881200002,-7.6810588129999928,0],[111.41313701500002,-7.6809755329999803,0],[111.413166757,-7.6808387120000248,0],[111.413107271,-7.6807078420000039,0],[111.41292881200002,-7.6805234340000084,0],[111.41268000100001,-7.6803800019999926,0],[111.41251835399999,-7.6803092819999961,0],[111.41254809700001,-7.6801367709999795,0],[111.41258973800001,-7.679952362999984,0],[111.41259884300001,-7.6798131099999978,0],[111.41262880599999,-7.6794707230000085,0],[111.41224223799998,-7.6792436609999868,0],[111.41160870700003,-7.6788302300000169,0],[111.410689639,-7.6782294149999757,0],[111.41016949599998,-7.6779051099999833,0],[111.40947067600001,-7.6774598929999911,0],[111.409379667,-7.6774173910000059,0]]]},"properties":{"OBJECTID":161322,"NAMOBJ":"Bogem","FCODE":"BA03070040","REMARK":null,"METADATA":"TASWIL1000020230928_DATA_BATAS_DESAKELURAHAN","SRS_ID":"SRGI 2013","KDBBPS":null,"KDCBPS":null,"KDCPUM":"35.20.05","KDEBPS":null,"KDEPUM":"35.20.05.2013","KDPBPS":null,"KDPKAB":"35.20","KDPPUM":"35","LUASWH":100.62937786000001,"TIPADM":1,"WADMKC":"Kawedanan","WADMKD":"Bogem","WADMKK":"Magetan","WADMPR":"Jawa Timur","WIADKC":null,"WIADKK":null,"WIADPR":null,"WIADKD":null,"UUPP":"Hasil Delineasi Batas Desa 2019","LUAS":100.62937786000001,"SHAPE.AREA":8.2473204763953495e-05,"SHAPE.LEN":0.046979481067984101}}]}
